{"type": "FeatureCollection", "features": [ {"type": "Feature", "properties": {"norad_id": 31152, "name": "FENGYUN 1C DEB", "group": "fengyun-1c-debris", "lat": -76.58846958833168, "lon": 111.92396656488225, "alt_km": 853.6799709276129, "timestamp": "2025-12-09T14:52:26.442497+00:00", "meta": {"OBJECT_NAME": "FENGYUN 1C DEB", "OBJECT_ID": "1999-025BHE", "EPOCH": "2025-12-08T22:52:36.554304", "MEAN_MOTION": 14.35843796, "ECCENTRICITY": 0.013034, "INCLINATION": 98.4139, "RA_OF_ASC_NODE": 329.6428, "ARG_OF_PERICENTER": 44.5854, "MEAN_ANOMALY": 12.3842, "EPHEMERIS_TYPE": 0, "CLASSIFICATION_TYPE": "U", "NORAD_CAT_ID": 31152, "ELEMENT_SET_NO": 999, "REV_AT_EPOCH": 97994, "BSTAR": 0.00017206, "MEAN_MOTION_DOT": 5.04e-06, "MEAN_MOTION_DDOT": 0}, "tle": {"line1": "1 31152U 99025BHE 25342.95320086  .00000504  00000+0  17206-3 0  9993", "line2": "2 31152  98.4139 329.6428 0130340  44.5854  12.3842 14.35843796979941"}}, "geometry": {"type": "Point", "coordinates": [111.92396656488225, -76.58846958833168]}}, {"type": "Feature", "properties": {"norad_id": 31155, "name": "FENGYUN 1C DEB", "group": "fengyun-1c-debris", "lat": 59.726565412949206, "lon": -111.62905342363781, "alt_km": 877.7878398415287, "timestamp": "2025-12-09T14:52:26.442507+00:00", "meta": {"OBJECT_NAME": "FENGYUN 1C DEB", "OBJECT_ID": "1999-025BHH", "EPOCH": "2025-12-09T04:05:10.000032", "MEAN_MOTION": 14.08303527, "ECCENTRICITY": 0.00889816, "INCLINATION": 99.042, "RA_OF_ASC_NODE": 52.0902, "ARG_OF_PERICENTER": 13.1, "MEAN_ANOMALY": 347.2451, "EPHEMERIS_TYPE": 0, "CLASSIFICATION_TYPE": "U", "NORAD_CAT_ID": 31155, "ELEMENT_SET_NO": 999, "REV_AT_EPOCH": 95537, "BSTAR": 0.0013568357, "MEAN_MOTION_DOT": 2.361e-05, "MEAN_MOTION_DDOT": 0}, "tle": {"line1": "1 31155U 99025BHH 25343.17025463  .00002361  00000+0  13568-2 0  9991", "line2": "2 31155  99.0420  52.0902 0088981  13.1000 347.2451 14.08303527955376"}}, "geometry": {"type": "Point", "coordinates": [-111.62905342363781, 59.726565412949206]}}, {"type": "Feature", "properties": {"norad_id": 31157, "name": "FENGYUN 1C DEB", "group": "fengyun-1c-debris", "lat": -74.96839520233128, "lon": 113.51313586365397, "alt_km": 808.5523127816696, "timestamp": "2025-12-09T14:52:26.442517+00:00", "meta": {"OBJECT_NAME": "FENGYUN 1C DEB", "OBJECT_ID": "1999-025BHK", "EPOCH": "2025-12-07T04:15:57.074688", "MEAN_MOTION": 14.22549105, "ECCENTRICITY": 0.0100449, "INCLINATION": 98.4774, "RA_OF_ASC_NODE": 324.9006, "ARG_OF_PERICENTER": 342.8267, "MEAN_ANOMALY": 16.9521, "EPHEMERIS_TYPE": 0, "CLASSIFICATION_TYPE": "U", "NORAD_CAT_ID": 31157, "ELEMENT_SET_NO": 999, "REV_AT_EPOCH": 96904, "BSTAR": 0.00056222965, "MEAN_MOTION_DOT": 1.279e-05, "MEAN_MOTION_DDOT": 0}, "tle": {"line1": "1 31157U 99025BHK 25341.17774392  .00001279  00000+0  56223-3 0  9996", "line2": "2 31157  98.4774 324.9006 0100449 342.8267  16.9521 14.22549105969047"}}, "geometry": {"type": "Point", "coordinates": [113.51313586365397, -74.96839520233128]}}, {"type": "Feature", "properties": {"norad_id": 31158, "name": "FENGYUN 1C DEB", "group": "fengyun-1c-debris", "lat": -50.31195374091515, "lon": 72.96624922638762, "alt_km": 791.0844969625668, "timestamp": "2025-12-09T14:52:26.442527+00:00", "meta": {"OBJECT_NAME": "FENGYUN 1C DEB", "OBJECT_ID": "1999-025BHL", "EPOCH": "2025-12-08T10:37:37.731648", "MEAN_MOTION": 14.33170274, "ECCENTRICITY": 0.00477382, "INCLINATION": 98.7814, "RA_OF_ASC_NODE": 61.0382, "ARG_OF_PERICENTER": 47.8986, "MEAN_ANOMALY": 312.6241, "EPHEMERIS_TYPE": 0, "CLASSIFICATION_TYPE": "U", "NORAD_CAT_ID": 31158, "ELEMENT_SET_NO": 999, "REV_AT_EPOCH": 64418, "BSTAR": 0.0025165293, "MEAN_MOTION_DOT": 6.96e-05, "MEAN_MOTION_DDOT": 0}, "tle": {"line1": "1 31158U 99025BHL 25342.44279782  .00006960  00000+0  25165-2 0  9993", "line2": "2 31158  98.7814  61.0382 0047738  47.8986 312.6241 14.33170274644182"}}, "geometry": {"type": "Point", "coordinates": [72.96624922638762, -50.31195374091515]}}, {"type": "Feature", "properties": {"norad_id": 31159, "name": "FENGYUN 1C DEB", "group": "fengyun-1c-debris", "lat": -4.095069514743781, "lon": -56.40331666801965, "alt_km": 387.39564515705206, "timestamp": "2025-12-09T14:52:26.442537+00:00", "meta": {"OBJECT_NAME": "FENGYUN 1C DEB", "OBJECT_ID": "1999-025BHM", "EPOCH": "2025-12-07T03:32:01.799520", "MEAN_MOTION": 15.37177071, "ECCENTRICITY": 0.01157472, "INCLINATION": 97.7995, "RA_OF_ASC_NODE": 300.4097, "ARG_OF_PERICENTER": 33.2484, "MEAN_ANOMALY": 327.5962, "EPHEMERIS_TYPE": 0, "CLASSIFICATION_TYPE": "U", "NORAD_CAT_ID": 31159, "ELEMENT_SET_NO": 999, "REV_AT_EPOCH": 99467, "BSTAR": 0.0020820653, "MEAN_MOTION_DOT": 0.00096035, "MEAN_MOTION_DDOT": 0}, "tle": {"line1": "1 31159U 99025BHM 25341.14724305  .00096035  00000+0  20821-2 0  9992", "line2": "2 31159  97.7995 300.4097 0115747  33.2484 327.5962 15.37177071994677"}}, "geometry": {"type": "Point", "coordinates": [-56.40331666801965, -4.095069514743781]}}, {"type": "Feature", "properties": {"norad_id": 31160, "name": "FENGYUN 1C DEB", "group": "fengyun-1c-debris", "lat": 68.1437405858563, "lon": 16.409346848019467, "alt_km": 928.3274546377515, "timestamp": "2025-12-09T14:52:26.442548+00:00", "meta": {"OBJECT_NAME": "FENGYUN 1C DEB", "OBJECT_ID": "1999-025BHN", "EPOCH": "2025-12-08T09:22:15.594528", "MEAN_MOTION": 13.99591387, "ECCENTRICITY": 0.00565956, "INCLINATION": 99.0866, "RA_OF_ASC_NODE": 38.7038, "ARG_OF_PERICENTER": 268.242, "MEAN_ANOMALY": 91.2261, "EPHEMERIS_TYPE": 0, "CLASSIFICATION_TYPE": "U", "NORAD_CAT_ID": 31160, "ELEMENT_SET_NO": 999, "REV_AT_EPOCH": 69538, "BSTAR": 0.0002209191, "MEAN_MOTION_DOT": 2.82e-06, "MEAN_MOTION_DDOT": 0}, "tle": {"line1": "1 31160U 99025BHN 25342.39045827  .00000282  00000+0  22092-3 0  9999", "line2": "2 31160  99.0866  38.7038 0056595 268.2420  91.2261 13.99591387695381"}}, "geometry": {"type": "Point", "coordinates": [16.409346848019467, 68.1437405858563]}}, {"type": "Feature", "properties": {"norad_id": 31161, "name": "FENGYUN 1C DEB", "group": "fengyun-1c-debris", "lat": 6.219524629321964, "lon": 4.33171617544775, "alt_km": 814.8189965599104, "timestamp": "2025-12-09T14:52:26.442558+00:00", "meta": {"OBJECT_NAME": "FENGYUN 1C DEB", "OBJECT_ID": "1999-025BHP", "EPOCH": "2025-12-08T18:23:48.937632", "MEAN_MOTION": 14.09244187, "ECCENTRICITY": 0.00684845, "INCLINATION": 98.749, "RA_OF_ASC_NODE": 4.4647, "ARG_OF_PERICENTER": 1.4364, "MEAN_ANOMALY": 358.6991, "EPHEMERIS_TYPE": 0, "CLASSIFICATION_TYPE": "U", "NORAD_CAT_ID": 31161, "ELEMENT_SET_NO": 999, "REV_AT_EPOCH": 96046, "BSTAR": 0.00059564655, "MEAN_MOTION_DOT": 1.016e-05, "MEAN_MOTION_DDOT": 0}, "tle": {"line1": "1 31161U 99025BHP 25342.76653863  .00001016  00000+0  59565-3 0  9997", "line2": "2 31161  98.7490   4.4647 0068484   1.4364 358.6991 14.09244187960460"}}, "geometry": {"type": "Point", "coordinates": [4.33171617544775, 6.219524629321964]}}, {"type": "Feature", "properties": {"norad_id": 31165, "name": "FENGYUN 1C DEB", "group": "fengyun-1c-debris", "lat": -20.512684320232765, "lon": 46.484428073256744, "alt_km": 666.8375167015438, "timestamp": "2025-12-09T14:52:26.442569+00:00", "meta": {"OBJECT_NAME": "FENGYUN 1C DEB", "OBJECT_ID": "1999-025BHT", "EPOCH": "2025-12-08T03:11:53.467008", "MEAN_MOTION": 14.70941214, "ECCENTRICITY": 0.00692189, "INCLINATION": 98.8854, "RA_OF_ASC_NODE": 41.509, "ARG_OF_PERICENTER": 249.2629, "MEAN_ANOMALY": 142.2739, "EPHEMERIS_TYPE": 0, "CLASSIFICATION_TYPE": "U", "NORAD_CAT_ID": 31165, "ELEMENT_SET_NO": 999, "REV_AT_EPOCH": 98687, "BSTAR": 0.0016610775, "MEAN_MOTION_DOT": 0.00010514, "MEAN_MOTION_DDOT": 0}, "tle": {"line1": "1 31165U 99025BHT 25342.13325772  .00010514  00000+0  16611-2 0  9994", "line2": "2 31165  98.8854  41.5090 0069218 249.2629 142.2739 14.70941214986878"}}, "geometry": {"type": "Point", "coordinates": [46.484428073256744, -20.512684320232765]}}, {"type": "Feature", "properties": {"norad_id": 31168, "name": "FENGYUN 1C DEB", "group": "fengyun-1c-debris", "lat": -72.77214994653471, "lon": 144.9230219515035, "alt_km": 742.0213618966563, "timestamp": "2025-12-09T14:52:26.442579+00:00", "meta": {"OBJECT_NAME": "FENGYUN 1C DEB", "OBJECT_ID": "1999-025BHW", "EPOCH": "2025-12-07T14:07:13.067616", "MEAN_MOTION": 14.67283945, "ECCENTRICITY": 0.01088741, "INCLINATION": 98.8911, "RA_OF_ASC_NODE": 112.4, "ARG_OF_PERICENTER": 79.4903, "MEAN_ANOMALY": 281.8544, "EPHEMERIS_TYPE": 0, "CLASSIFICATION_TYPE": "U", "NORAD_CAT_ID": 31168, "ELEMENT_SET_NO": 999, "REV_AT_EPOCH": 99045, "BSTAR": 0.0012286131, "MEAN_MOTION_DOT": 7.519e-05, "MEAN_MOTION_DDOT": 0}, "tle": {"line1": "1 31168U 99025BHW 25341.58834569  .00007519  00000+0  12286-2 0  9999", "line2": "2 31168  98.8911 112.4000 0108874  79.4903 281.8544 14.67283945990453"}}, "geometry": {"type": "Point", "coordinates": [144.9230219515035, -72.77214994653471]}}, {"type": "Feature", "properties": {"norad_id": 31169, "name": "FENGYUN 1C DEB", "group": "fengyun-1c-debris", "lat": -60.92712119245911, "lon": 173.04401935084582, "alt_km": 844.4069371058513, "timestamp": "2025-12-09T14:52:26.442589+00:00", "meta": {"OBJECT_NAME": "FENGYUN 1C DEB", "OBJECT_ID": "1999-025BHX", "EPOCH": "2025-12-07T14:36:12.590784", "MEAN_MOTION": 14.26378053, "ECCENTRICITY": 0.00576294, "INCLINATION": 99.1571, "RA_OF_ASC_NODE": 7.8072, "ARG_OF_PERICENTER": 32.3449, "MEAN_ANOMALY": 328.1242, "EPHEMERIS_TYPE": 0, "CLASSIFICATION_TYPE": "U", "NORAD_CAT_ID": 31169, "ELEMENT_SET_NO": 999, "REV_AT_EPOCH": 57031, "BSTAR": 0.0034039126, "MEAN_MOTION_DOT": 8.288e-05, "MEAN_MOTION_DDOT": 0}, "tle": {"line1": "1 31169U 99025BHX 25341.60847906  .00008288  00000+0  34039-2 0  9996", "line2": "2 31169  99.1571   7.8072 0057629  32.3449 328.1242 14.26378053570319"}}, "geometry": {"type": "Point", "coordinates": [173.04401935084582, -60.92712119245911]}}]}